start=new Date('2022-11-17T00:00:00.000Z').valueOf();
sats=[{"EPOCH":"2022-11-16T19:57:28.793664","SITE":"AFETR","CENTER_NAME":"EARTH","MEAN_MOTION_DOT":"0.00001807","RA_OF_ASC_NODE":"148.4059","SEMIMAJOR_AXIS":"6925.350","ARG_OF_PERICENTER":"66.1807","ELEMENT_SET_NO":"999","EPHEMERIS_TYPE":"0","APOAPSIS":"548.389","REV_AT_EPOCH":"8150","RCS_SIZE":"LARGE","MEAN_ELEMENT_THEORY":"SGP4","OBJECT_ID":"2021-044T","COUNTRY_CODE":"US","NORAD_CAT_ID":"48655","PERIAPSIS":"546.040","REF_FRAME":"TEME","TLE_LINE1":"1 48655U 21044T   22320.83158326  .00001807  00000-0  14016-3 0  9995","MEAN_MOTION_DDOT":"0.0000000000000","MEAN_MOTION":"15.06399674","BSTAR":"0.00014016000000","FILE":"3660705","MEAN_ANOMALY":"293.9360","OBJECT_NAME":"STARLINK-2657","LAUNCH_DATE":"2021-05-26","TLE_LINE2":"2 48655  53.0542 148.4059 0001696  66.1807 293.9360 15.06399674 81506","INCLINATION":"53.0542","GP_ID":"218013868","ECCENTRICITY":"0.00016960","TIME_SYSTEM":"UTC","CLASSIFICATION_TYPE":"U","PERIOD":"95.592","OBJECT_TYPE":"PAYLOAD","DECAY_DATE":null},{"PERIAPSIS":"546.106","MEAN_MOTION":"15.06391827","TLE_LINE1":"1 48656U 21044U   22320.82791001  .00000313  00000-0  39929-4 0  9990","MEAN_MOTION_DDOT":"0.0000000000000","REF_FRAME":"TEME","MEAN_ELEMENT_THEORY":"SGP4","RCS_SIZE":"LARGE","COUNTRY_CODE":"US","NORAD_CAT_ID":"48656","OBJECT_ID":"2021-044U","EPHEMERIS_TYPE":"0","ARG_OF_PERICENTER":"66.0962","ELEMENT_SET_NO":"999","SEMIMAJOR_AXIS":"6925.374","REV_AT_EPOCH":"8150","APOAPSIS":"548.371","EPOCH":"2022-11-16T19:52:11.424864","RA_OF_ASC_NODE":"148.4236","MEAN_MOTION_DOT":"0.00000313","SITE":"AFETR","CENTER_NAME":"EARTH","OBJECT_TYPE":"PAYLOAD","PERIOD":"95.593","DECAY_DATE":null,"CLASSIFICATION_TYPE":"U","TIME_SYSTEM":"UTC","GP_ID":"218014116","TLE_LINE2":"2 48656  53.0544 148.4236 0001635  66.0962 294.0198 15.06391827 81503","LAUNCH_DATE":"2021-05-26","INCLINATION":"53.0544","ECCENTRICITY":"0.00016350","FILE":"3660705","BSTAR":"0.00003992900000","OBJECT_NAME":"STARLINK-2701","MEAN_ANOMALY":"294.0198"},{"MEAN_ELEMENT_THEORY":"SGP4","RCS_SIZE":"LARGE","NORAD_CAT_ID":"48657","COUNTRY_CODE":"US","OBJECT_ID":"2021-044V","PERIAPSIS":"546.184","MEAN_MOTION":"15.06392470","TLE_LINE1":"1 48657U 21044V   22320.82421940 -.00000135  00000-0  98393-5 0  9997","MEAN_MOTION_DDOT":"0.0000000000000","REF_FRAME":"TEME","EPOCH":"2022-11-16T19:46:52.556160","RA_OF_ASC_NODE":"148.4280","MEAN_MOTION_DOT":"-0.00000135","CENTER_NAME":"EARTH","SITE":"AFETR","EPHEMERIS_TYPE":"0","ELEMENT_SET_NO":"999","ARG_OF_PERICENTER":"76.8580","SEMIMAJOR_AXIS":"6925.372","REV_AT_EPOCH":"8150","APOAPSIS":"548.289","CLASSIFICATION_TYPE":"U","TIME_SYSTEM":"UTC","OBJECT_TYPE":"PAYLOAD","PERIOD":"95.593","DECAY_DATE":null,"FILE":"3660705","BSTAR":"0.00000983930000","OBJECT_NAME":"STARLINK-2734","MEAN_ANOMALY":"283.2579","GP_ID":"218014869","TLE_LINE2":"2 48657  53.0546 148.4280 0001520  76.8580 283.2579 15.06392470 81501","LAUNCH_DATE":"2021-05-26","INCLINATION":"53.0546","ECCENTRICITY":"0.00015200"},{"PERIOD":"95.592","OBJECT_TYPE":"PAYLOAD","DECAY_DATE":null,"TIME_SYSTEM":"UTC","CLASSIFICATION_TYPE":"U","LAUNCH_DATE":"2021-05-26","TLE_LINE2":"2 48658  53.0532 148.4475 0001603  69.1837 290.9324 15.06404922 81504","INCLINATION":"53.0532","GP_ID":"218015115","ECCENTRICITY":"0.00016030","BSTAR":"-0.00000644700000","FILE":"3660705","MEAN_ANOMALY":"290.9324","OBJECT_NAME":"STARLINK-2647","PERIAPSIS":"546.088","REF_FRAME":"TEME","TLE_LINE1":"1 48658U 21044W   22320.82052791 -.00000378  00000-0 -64470-5 0  9991","MEAN_MOTION_DDOT":"0.0000000000000","MEAN_MOTION":"15.06404922","RCS_SIZE":"LARGE","MEAN_ELEMENT_THEORY":"SGP4","COUNTRY_CODE":"US","NORAD_CAT_ID":"48658","OBJECT_ID":"2021-044W","SEMIMAJOR_AXIS":"6925.333","ELEMENT_SET_NO":"999","ARG_OF_PERICENTER":"69.1837","EPHEMERIS_TYPE":"0","APOAPSIS":"548.309","REV_AT_EPOCH":"8150","EPOCH":"2022-11-16T19:41:33.611424","SITE":"AFETR","CENTER_NAME":"EARTH","MEAN_MOTION_DOT":"-0.00000378","RA_OF_ASC_NODE":"148.4475"},{"PERIAPSIS":"546.131","MEAN_MOTION":"15.06398227","TLE_LINE1":"1 48659U 21044X   22320.81684887 -.00000302  00000-0 -13528-5 0  9993","MEAN_MOTION_DDOT":"0.0000000000000","REF_FRAME":"TEME","MEAN_ELEMENT_THEORY":"SGP4","RCS_SIZE":"LARGE","NORAD_CAT_ID":"48659","COUNTRY_CODE":"US","OBJECT_ID":"2021-044X","EPHEMERIS_TYPE":"0","ELEMENT_SET_NO":"999","ARG_OF_PERICENTER":"62.3593","SEMIMAJOR_AXIS":"6925.354","REV_AT_EPOCH":"8150","APOAPSIS":"548.307","EPOCH":"2022-11-16T19:36:15.742368","RA_OF_ASC_NODE":"148.4680","MEAN_MOTION_DOT":"-0.00000302","SITE":"AFETR","CENTER_NAME":"EARTH","OBJECT_TYPE":"PAYLOAD","PERIOD":"95.592","DECAY_DATE":null,"CLASSIFICATION_TYPE":"U","TIME_SYSTEM":"UTC","GP_ID":"218014369","TLE_LINE2":"2 48659  53.0550 148.4680 0001571  62.3593 297.7555 15.06398227 81502","LAUNCH_DATE":"2021-05-26","INCLINATION":"53.0550","ECCENTRICITY":"0.00015710","FILE":"3660705","BSTAR":"-0.00000135280000","OBJECT_NAME":"STARLINK-2717","MEAN_ANOMALY":"297.7555"},{"TIME_SYSTEM":"UTC","CLASSIFICATION_TYPE":"U","DECAY_DATE":null,"PERIOD":"95.593","OBJECT_TYPE":"PAYLOAD","MEAN_ANOMALY":"252.5949","OBJECT_NAME":"STARLINK-2688","BSTAR":"-0.00001070700000","FILE":"3660705","ECCENTRICITY":"0.00012790","INCLINATION":"53.0543","TLE_LINE2":"2 48660  53.0543 148.4836 0001279 107.5179 252.5949 15.06393516 81508","LAUNCH_DATE":"2021-05-26","GP_ID":"218014617","COUNTRY_CODE":"US","OBJECT_ID":"2021-044Y","NORAD_CAT_ID":"48660","RCS_SIZE":"LARGE","MEAN_ELEMENT_THEORY":"SGP4","REF_FRAME":"TEME","TLE_LINE1":"1 48660U 21044Y   22320.81315994 -.00000441  00000-0 -10707-4 0  9994","MEAN_MOTION_DDOT":"0.0000000000000","MEAN_MOTION":"15.06393516","PERIAPSIS":"546.348","CENTER_NAME":"EARTH","SITE":"AFETR","MEAN_MOTION_DOT":"-0.00000441","RA_OF_ASC_NODE":"148.4836","EPOCH":"2022-11-16T19:30:57.018816","APOAPSIS":"548.119","REV_AT_EPOCH":"8150","SEMIMAJOR_AXIS":"6925.368","ARG_OF_PERICENTER":"107.5179","ELEMENT_SET_NO":"999","EPHEMERIS_TYPE":"0"},{"MEAN_ANOMALY":"291.5634","OBJECT_NAME":"STARLINK-2708","FILE":"3660705","BSTAR":"-0.00003222300000","ECCENTRICITY":"0.00016350","GP_ID":"218015370","TLE_LINE2":"2 48661  53.0550 138.4599 0001635  68.5529 291.5634 15.06382089 81645","LAUNCH_DATE":"2021-05-26","INCLINATION":"53.0550","TIME_SYSTEM":"UTC","CLASSIFICATION_TYPE":"U","DECAY_DATE":null,"PERIOD":"95.593","OBJECT_TYPE":"PAYLOAD","RA_OF_ASC_NODE":"138.4599","SITE":"AFETR","CENTER_NAME":"EARTH","MEAN_MOTION_DOT":"-0.00000761","EPOCH":"2022-11-16T19:32:18.497472","APOAPSIS":"548.401","REV_AT_EPOCH":"8164","ELEMENT_SET_NO":"999","ARG_OF_PERICENTER":"68.5529","EPHEMERIS_TYPE":"0","SEMIMAJOR_AXIS":"6925.403","COUNTRY_CODE":"US","NORAD_CAT_ID":"48661","OBJECT_ID":"2021-044Z","MEAN_ELEMENT_THEORY":"SGP4","RCS_SIZE":"LARGE","MEAN_MOTION":"15.06382089","REF_FRAME":"TEME","TLE_LINE1":"1 48661U 21044Z   22320.81410298 -.00000761  00000-0 -32223-4 0  9990","MEAN_MOTION_DDOT":"0.0000000000000","PERIAPSIS":"546.136"},{"SEMIMAJOR_AXIS":"6925.349","EPHEMERIS_TYPE":"0","ELEMENT_SET_NO":"999","ARG_OF_PERICENTER":"81.6830","REV_AT_EPOCH":"8164","APOAPSIS":"548.106","EPOCH":"2022-11-16T19:26:57.699456","MEAN_MOTION_DOT":"-0.00000406","CENTER_NAME":"EARTH","SITE":"AFETR","RA_OF_ASC_NODE":"138.4994","PERIAPSIS":"546.321","TLE_LINE1":"1 48662U 21044AA  22320.81039004 -.00000406  00000-0 -83877-5 0  9991","MEAN_MOTION_DDOT":"0.0000000000000","REF_FRAME":"TEME","MEAN_MOTION":"15.06400015","RCS_SIZE":"LARGE","MEAN_ELEMENT_THEORY":"SGP4","OBJECT_ID":"2021-044AA","COUNTRY_CODE":"US","NORAD_CAT_ID":"48662","TLE_LINE2":"2 48662  53.0536 138.4994 0001289  81.6830 278.4305 15.06400015 81644","LAUNCH_DATE":"2021-05-26","INCLINATION":"53.0536","GP_ID":"218015616","ECCENTRICITY":"0.00012890","BSTAR":"-0.00000838770000","FILE":"3660705","OBJECT_NAME":"STARLINK-2726","MEAN_ANOMALY":"278.4305","OBJECT_TYPE":"PAYLOAD","PERIOD":"95.592","DECAY_DATE":null,"CLASSIFICATION_TYPE":"U","TIME_SYSTEM":"UTC"},{"OBJECT_TYPE":"PAYLOAD","PERIOD":"95.593","DECAY_DATE":null,"CLASSIFICATION_TYPE":"U","TIME_SYSTEM":"UTC","GP_ID":"218013869","LAUNCH_DATE":"2021-05-26","TLE_LINE2":"2 48663  53.0545 138.5122 0001238  82.5495 277.5635 15.06391931 81642","INCLINATION":"53.0545","ECCENTRICITY":"0.00012380","FILE":"3660705","BSTAR":"0.00013695000000","OBJECT_NAME":"STARLINK-2667","MEAN_ANOMALY":"277.5635","PERIAPSIS":"546.381","MEAN_MOTION":"15.06391931","TLE_LINE1":"1 48663U 21044AB  22320.80671627  .00001759  00000-0  13695-3 0  9993","MEAN_MOTION_DDOT":"0.0000000000000","REF_FRAME":"TEME","MEAN_ELEMENT_THEORY":"SGP4","RCS_SIZE":"LARGE","COUNTRY_CODE":"US","NORAD_CAT_ID":"48663","OBJECT_ID":"2021-044AB","EPHEMERIS_TYPE":"0","ARG_OF_PERICENTER":"82.5495","ELEMENT_SET_NO":"999","SEMIMAJOR_AXIS":"6925.373","REV_AT_EPOCH":"8164","APOAPSIS":"548.096","EPOCH":"2022-11-16T19:21:40.285728","RA_OF_ASC_NODE":"138.5122","MEAN_MOTION_DOT":"0.00001759","SITE":"AFETR","CENTER_NAME":"EARTH"},{"TIME_SYSTEM":"UTC","CLASSIFICATION_TYPE":"U","DECAY_DATE":null,"PERIOD":"95.592","OBJECT_TYPE":"PAYLOAD","MEAN_ANOMALY":"288.2763","OBJECT_NAME":"STARLINK-2709","BSTAR":"-0.00000040816000","FILE":"3660705","ECCENTRICITY":"0.00017260","TLE_LINE2":"2 48664  53.0544 138.5308 0001726  71.8414 288.2763 15.06396040 81649","INCLINATION":"53.0544","LAUNCH_DATE":"2021-05-26","GP_ID":"218014117","COUNTRY_CODE":"US","NORAD_CAT_ID":"48664","OBJECT_ID":"2021-044AC","RCS_SIZE":"LARGE","MEAN_ELEMENT_THEORY":"SGP4","REF_FRAME":"TEME","TLE_LINE1":"1 48664U 21044AC  22320.80302765 -.00000288  00000-0 -40816-6 0  9994","MEAN_MOTION_DDOT":"0.0000000000000","MEAN_MOTION":"15.06396040","PERIAPSIS":"546.030","CENTER_NAME":"EARTH","SITE":"AFETR","MEAN_MOTION_DOT":"-0.00000288","RA_OF_ASC_NODE":"138.5308","EPOCH":"2022-11-16T19:16:21.588960","APOAPSIS":"548.421","REV_AT_EPOCH":"8164","SEMIMAJOR_AXIS":"6925.361","ELEMENT_SET_NO":"999","ARG_OF_PERICENTER":"71.8414","EPHEMERIS_TYPE":"0"}];
